{
  "norad_id": 58048,
  "name": "STARLINK-30554",
  "history": [
    {
      "epoch": "2026-04-11T03:25:54.854400Z",
      "apogee_km": 476.1052885601739,
      "perigee_km": 474.4330574539608,
      "latitude_deg": 4.473562932906794e-06,
      "longitude_deg": 126.44772256960907,
      "height_km": 476.38158713629565,
      "semi_major_axis_km": 6853.406173007067,
      "eccentricity": 0.000122,
      "inclination_deg": 53.1623,
      "raan_deg": 17.293,
      "arg_perigee_deg": 104.8282,
      "mean_anomaly_deg": 255.2854,
      "mean_motion_rev_day": 15.3018188
    },
    {
      "epoch": "2026-04-13T00:53:26.542464Z",
      "apogee_km": 475.9517590097885,
      "perigee_km": 474.5244751079108,
      "latitude_deg": 6.062426692439934e-06,
      "longitude_deg": 153.90356166182036,
      "height_km": 476.2359442908826,
      "semi_major_axis_km": 6853.375117058849,
      "eccentricity": 0.00010413,
      "inclination_deg": 53.1614,
      "raan_deg": 8.4978,
      "arg_perigee_deg": 97.9971,
      "mean_anomaly_deg": 262.1148,
      "mean_motion_rev_day": 15.30192281
    },
    {
      "epoch": "2026-04-14T20:46:56.517024Z",
      "apogee_km": 476.18536229413894,
      "perigee_km": 474.25682732625955,
      "latitude_deg": -5.661050574295079e-05,
      "longitude_deg": -154.7731435636652,
      "height_km": 475.7241138534709,
      "semi_major_axis_km": 6853.358094810199,
      "eccentricity": 0.0001407,
      "inclination_deg": 53.1618,
      "raan_deg": 359.9986,
      "arg_perigee_deg": 65.8019,
      "mean_anomaly_deg": 294.3128,
      "mean_motion_rev_day": 15.30197982
    },
    {
      "epoch": "2026-04-14T22:20:59.632800Z",
      "apogee_km": 476.23247783889565,
      "perigee_km": 474.2071738297245,
      "latitude_deg": 3.8374154654758606e-05,
      "longitude_deg": -178.65313136076907,
      "height_km": 475.82056333004397,
      "semi_major_axis_km": 6853.35682583431,
      "eccentricity": 0.00014776,
      "inclination_deg": 53.162,
      "raan_deg": 359.6959,
      "arg_perigee_deg": 72.924,
      "mean_anomaly_deg": 287.1923,
      "mean_motion_rev_day": 15.30198407
    },
    {
      "epoch": "2026-04-16T02:33:56.471904Z",
      "apogee_km": 476.03463841575376,
      "perigee_km": 474.25525229146206,
      "latitude_deg": 3.905229885450448e-06,
      "longitude_deg": 111.49113440435438,
      "height_km": 475.85087146064757,
      "semi_major_axis_km": 6853.281945353608,
      "eccentricity": 0.00012982,
      "inclination_deg": 53.1622,
      "raan_deg": 354.2358,
      "arg_perigee_deg": 77.5108,
      "mean_anomaly_deg": 282.6038,
      "mean_motion_rev_day": 15.30223486
    },
    {
      "epoch": "2026-04-17T22:27:26.594208Z",
      "apogee_km": 476.2337565663893,
      "perigee_km": 474.2253089702963,
      "latitude_deg": -5.8689744892020224e-05,
      "longitude_deg": 162.81881284972852,
      "height_km": 475.94244972545226,
      "semi_major_axis_km": 6853.366532768342,
      "eccentricity": 0.00014653,
      "inclination_deg": 53.1621,
      "raan_deg": 345.7416,
      "arg_perigee_deg": 79.375,
      "mean_anomaly_deg": 280.7415,
      "mean_motion_rev_day": 15.30195156
    },
    {
      "epoch": "2026-04-19T19:54:57.582432Z",
      "apogee_km": 476.4217578791795,
      "perigee_km": 473.93126374934945,
      "latitude_deg": 2.154299203939141e-05,
      "longitude_deg": -169.72426464083566,
      "height_km": 476.21051931845705,
      "semi_major_axis_km": 6853.313510814264,
      "eccentricity": 0.0001817,
      "inclination_deg": 53.161,
      "raan_deg": 336.9445,
      "arg_perigee_deg": 96.297,
      "mean_anomaly_deg": 263.8238,
      "mean_motion_rev_day": 15.30212914
    },
    {
      "epoch": "2026-04-20T08:27:24.877728Z",
      "apogee_km": 477.10903573108953,
      "perigee_km": 473.391073254028,
      "latitude_deg": -2.7569710716948523e-05,
      "longitude_deg": -0.7830697181929615,
      "height_km": 476.4145289848088,
      "semi_major_axis_km": 6853.3870544925585,
      "eccentricity": 0.00027125,
      "inclination_deg": 53.1588,
      "raan_deg": 334.5145,
      "arg_perigee_deg": 98.3079,
      "mean_anomaly_deg": 261.8229,
      "mean_motion_rev_day": 15.30188283
    },
    {
      "epoch": "2026-04-21T20:30:38.151072Z",
      "apogee_km": 476.31164600538887,
      "perigee_km": 474.1144619780798,
      "latitude_deg": 5.250087924281068e-05,
      "longitude_deg": 169.956808353204,
      "height_km": 476.1458143494472,
      "semi_major_axis_km": 6853.350053991734,
      "eccentricity": 0.0001603,
      "inclination_deg": 53.1616,
      "raan_deg": 327.5403,
      "arg_perigee_deg": 91.8249,
      "mean_anomaly_deg": 268.2936,
      "mean_motion_rev_day": 15.30200675
    },
    {
      "epoch": "2026-04-21T22:04:41.261664Z",
      "apogee_km": 476.12489922763507,
      "perigee_km": 474.2939591956065,
      "latitude_deg": 2.557437640256279e-05,
      "longitude_deg": 146.07635112310132,
      "height_km": 476.1461286625531,
      "semi_major_axis_km": 6853.3464292116205,
      "eccentricity": 0.00013358,
      "inclination_deg": 53.1612,
      "raan_deg": 327.2372,
      "arg_perigee_deg": 92.4158,
      "mean_anomaly_deg": 267.6996,
      "mean_motion_rev_day": 15.30201889
    },
    {
      "epoch": "2026-04-24T20:37:05.065824Z",
      "apogee_km": 476.18597458777276,
      "perigee_km": 474.2766261792858,
      "latitude_deg": 2.3536815039827085e-05,
      "longitude_deg": 151.42368778753234,
      "height_km": 476.3827969269848,
      "semi_major_axis_km": 6853.368300383529,
      "eccentricity": 0.0001393,
      "inclination_deg": 53.1616,
      "raan_deg": 313.5807,
      "arg_perigee_deg": 105.3901,
      "mean_anomaly_deg": 254.7254,
      "mean_motion_rev_day": 15.30194564
    },
    {
      "epoch": "2026-04-25T18:33:50.260032Z",
      "apogee_km": 476.08547790841476,
      "perigee_km": 474.3968055342939,
      "latitude_deg": 7.885731241393968e-06,
      "longitude_deg": 177.0907811909586,
      "height_km": 476.1542295437075,
      "semi_major_axis_km": 6853.378141721354,
      "eccentricity": 0.0001232,
      "inclination_deg": 53.162,
      "raan_deg": 309.3374,
      "arg_perigee_deg": 91.001,
      "mean_anomaly_deg": 269.1132,
      "mean_motion_rev_day": 15.30191268
    },
    {
      "epoch": "2026-04-26T19:38:40.932384Z",
      "apogee_km": 475.977052650489,
      "perigee_km": 474.4454663814531,
      "latitude_deg": -4.5037929660661776e-05,
      "longitude_deg": 154.99547791789246,
      "height_km": 476.065300879119,
      "semi_major_axis_km": 6853.348259515971,
      "eccentricity": 0.00011174,
      "inclination_deg": 53.1616,
      "raan_deg": 304.4833,
      "arg_perigee_deg": 86.6744,
      "mean_anomaly_deg": 273.4384,
      "mean_motion_rev_day": 15.30201276
    },
    {
      "epoch": "2026-04-27T19:09:29.390112Z",
      "apogee_km": 476.00715381178634,
      "perigee_km": 474.4733679807978,
      "latitude_deg": 1.7061486723649565e-05,
      "longitude_deg": 156.7774542302349,
      "height_km": 476.0998292249719,
      "semi_major_axis_km": 6853.377260896292,
      "eccentricity": 0.0001119,
      "inclination_deg": 53.1614,
      "raan_deg": 299.9328,
      "arg_perigee_deg": 87.0955,
      "mean_anomaly_deg": 273.0174,
      "mean_motion_rev_day": 15.30191563
    },
    {
      "epoch": "2026-04-28T18:40:17.269824Z",
      "apogee_km": 475.96421670286963,
      "perigee_km": 474.48937281423696,
      "latitude_deg": 1.0091946593621116e-05,
      "longitude_deg": 158.55929404059324,
      "height_km": 476.1633393446471,
      "semi_major_axis_km": 6853.363794758553,
      "eccentricity": 0.0001076,
      "inclination_deg": 53.1608,
      "raan_deg": 295.3798,
      "arg_perigee_deg": 92.9633,
      "mean_anomaly_deg": 267.1491,
      "mean_motion_rev_day": 15.30196073
    },
    {
      "epoch": "2026-04-29T18:11:05.104608Z",
      "apogee_km": 475.99893717525447,
      "perigee_km": 474.48845207015984,
      "latitude_deg": 7.722796828888303e-06,
      "longitude_deg": 160.34452462375123,
      "height_km": 475.89343695736926,
      "semi_major_axis_km": 6853.380694622707,
      "eccentricity": 0.0001102,
      "inclination_deg": 53.1618,
      "raan_deg": 290.83,
      "arg_perigee_deg": 70.7628,
      "mean_anomaly_deg": 289.3492,
      "mean_motion_rev_day": 15.30190413
    },
    {
      "epoch": "2026-04-30T14:33:46.530720Z",
      "apogee_km": 475.8889799511853,
      "perigee_km": 474.57135157989615,
      "latitude_deg": 2.1345640687343107e-05,
      "longitude_deg": -150.1089761148002,
      "height_km": 475.97304922483767,
      "semi_major_axis_km": 6853.36716576554,
      "eccentricity": 9.613e-05,
      "inclination_deg": 53.1621,
      "raan_deg": 286.886,
      "arg_perigee_deg": 76.3147,
      "mean_anomaly_deg": 283.7961,
      "mean_motion_rev_day": 15.30194944
    },
    {
      "epoch": "2026-05-01T17:12:40.940064Z",
      "apogee_km": 476.01398920956854,
      "perigee_km": 474.45265438285605,
      "latitude_deg": 1.9394736611516298e-05,
      "longitude_deg": 163.91250285286594,
      "height_km": 475.9293695403371,
      "semi_major_axis_km": 6853.370321796212,
      "eccentricity": 0.00011391,
      "inclination_deg": 53.1624,
      "raan_deg": 281.7286,
      "arg_perigee_deg": 74.9648,
      "mean_anomaly_deg": 285.1479,
      "mean_motion_rev_day": 15.30193887
    },
    {
      "epoch": "2026-05-03T16:14:16.771200Z",
      "apogee_km": 476.18908483471387,
      "perigee_km": 474.2893289501626,
      "latitude_deg": 3.750728026145827e-05,
      "longitude_deg": 167.48040065353518,
      "height_km": 476.1589363761841,
      "semi_major_axis_km": 6853.376206892438,
      "eccentricity": 0.0001386,
      "inclination_deg": 53.1622,
      "raan_deg": 272.6271,
      "arg_perigee_deg": 91.3022,
      "mean_anomaly_deg": 268.8138,
      "mean_motion_rev_day": 15.30191916
    }
  ]
}